<?xml version="1.0" encoding="UTF-8"?>
<kml xmlns="http://www.opengis.net/kml/2.2" xmlns:wpml="http://www.dji.com/wpmz/1.0.6">
  <Document>
    <wpml:author>18382479503</wpml:author>
    <wpml:createTime>1776761922705</wpml:createTime>
    <wpml:updateTime>1776762774261</wpml:updateTime>
    <wpml:missionConfig>
      <wpml:flyToWaylineMode>safely</wpml:flyToWaylineMode>
      <wpml:finishAction>goHome</wpml:finishAction>
      <wpml:exitOnRCLost>goContinue</wpml:exitOnRCLost>
      <wpml:executeRCLostAction>goBack</wpml:executeRCLostAction>
      <wpml:takeOffSecurityHeight>20</wpml:takeOffSecurityHeight>
      <wpml:takeOffRefPoint>31.089601,104.389664,432.986418</wpml:takeOffRefPoint>
      <wpml:takeOffRefPointAGLHeight>0</wpml:takeOffRefPointAGLHeight>
      <wpml:globalTransitionalSpeed>15</wpml:globalTransitionalSpeed>
      <wpml:globalRTHHeight>100</wpml:globalRTHHeight>
      <wpml:droneInfo>
        <wpml:droneEnumValue>99</wpml:droneEnumValue>
        <wpml:droneSubEnumValue>1</wpml:droneSubEnumValue>
      </wpml:droneInfo>
      <wpml:waylineAvoidLimitAreaMode>0</wpml:waylineAvoidLimitAreaMode>
      <wpml:payloadInfo>
        <wpml:payloadEnumValue>89</wpml:payloadEnumValue>
        <wpml:payloadSubEnumValue>0</wpml:payloadSubEnumValue>
        <wpml:payloadPositionIndex>0</wpml:payloadPositionIndex>
      </wpml:payloadInfo>
    </wpml:missionConfig>
    <Folder>
      <wpml:templateType>mapping3d</wpml:templateType>
      <wpml:templateId>0</wpml:templateId>
      <wpml:waylineCoordinateSysParam>
        <wpml:coordinateMode>WGS84</wpml:coordinateMode>
        <wpml:heightMode>EGM96</wpml:heightMode>
        <wpml:globalShootHeight>140.549171270718</wpml:globalShootHeight>
        <wpml:surfaceFollowModeEnable>1</wpml:surfaceFollowModeEnable>
        <wpml:isRealtimeSurfaceFollow>0</wpml:isRealtimeSurfaceFollow>
        <wpml:surfaceRelativeHeight>140.549171270718</wpml:surfaceRelativeHeight>
        <wpml:dsmFile>wpmz/res/dsm/wgs84_ASTGTMV003_N31E104_dem_8.tif</wpml:dsmFile>
      </wpml:waylineCoordinateSysParam>
      <wpml:autoFlightSpeed>15</wpml:autoFlightSpeed>
      <Placemark>
        <wpml:caliFlightEnable>0</wpml:caliFlightEnable>
        <wpml:inclinedGimbalPitch>-45</wpml:inclinedGimbalPitch>
        <wpml:shootType>time</wpml:shootType>
        <wpml:direction>89</wpml:direction>
        <wpml:margin>0</wpml:margin>
        <wpml:inclinedFlightSpeed>15</wpml:inclinedFlightSpeed>
        <wpml:efficiencyFlightModeEnable>0</wpml:efficiencyFlightModeEnable>
        <wpml:overlap>
          <wpml:orthoCameraOverlapH>80</wpml:orthoCameraOverlapH>
          <wpml:orthoCameraOverlapW>70</wpml:orthoCameraOverlapW>
          <wpml:inclinedCameraOverlapH>80</wpml:inclinedCameraOverlapH>
          <wpml:inclinedCameraOverlapW>70</wpml:inclinedCameraOverlapW>
        </wpml:overlap>
        <Polygon>
          <outerBoundaryIs>
            <LinearRing>
              <coordinates>
                104.385246377633,31.0907776615667,0
                104.388395686615,31.0907777097807,0
                104.388448093688,31.0891407417582,0
                104.38531979404,31.0891497139019,0
                104.385267385058,31.0893661710695,0
              </coordinates>
            </LinearRing>
          </outerBoundaryIs>
        </Polygon>
        <wpml:ellipsoidHeight>140.549171270718</wpml:ellipsoidHeight>
        <wpml:height>140.549171270718</wpml:height>
      </Placemark>
      <wpml:payloadParam>
        <wpml:payloadPositionIndex>0</wpml:payloadPositionIndex>
        <wpml:focusMode>firstPoint</wpml:focusMode>
        <wpml:meteringMode>average</wpml:meteringMode>
        <wpml:returnMode>singleReturnStrongest</wpml:returnMode>
        <wpml:samplingRate>240000</wpml:samplingRate>
        <wpml:scanningMode>repetitive</wpml:scanningMode>
        <wpml:imageFormat>visable</wpml:imageFormat>
        <wpml:photoSize>default_l</wpml:photoSize>
      </wpml:payloadParam>
    </Folder>
  </Document>
</kml>
